0 IRIDIUM 33 DEB
1 35622U 97051QU  13283.45916520  .00003827  00000-0  13224-2 0  5944
2 35622 086.2249 099.0138 0035060 354.5573 034.5622 14.35231883231306
0 IRIDIUM 33 DEB
1 35622U 97051QU  13286.45709786  .00003523  00000-0  12166-2 0  5959
2 35622 086.2218 097.6938 0034883 344.3412 044.8998 14.35248308231732
0 IRIDIUM 33 DEB
1 35622U 97051QU  13290.43164308  .00004709  00000-0  16273-2 0  5968
2 35622 086.2244 095.9530 0034264 331.4697 061.0838 14.35280913232301
0 IRIDIUM 33 DEB
1 35622U 97051QU  13295.89298464  .00005402  00000-0  18663-2 0  5982
2 35622 086.2259 093.5583 0034101 312.8613 201.0879 14.35321400233095
